SL-14 R/B               
1 21423U 91042B   26050.93082060  .00000382  00000+0  45372-4 0  9996
2 21423  82.4896 236.8380 0015741 302.3170  57.6519 14.81810340850449
ERS-1                   
1 21574U 91050A   26050.90242809  .00000255  00000+0  96354-4 0  9993
2 21574  98.7893  68.6896 0030911 254.5388 105.2384 14.39434081813177
ARIANE 40 R/B           
1 21610U 91050F   26050.64895159  .00000260  00000+0  90456-4 0  9990
2 21610  98.2053 103.5591 0004237 120.7102 239.4507 14.42879568816393
INTERCOSMOS 25          
1 21819U 91086A   26050.82487308  .00000805  00000+0  15224-3 0  9997
2 21819  82.6080 320.8038 1487000 155.4155 212.5930 12.11946636494522
SL-8 R/B                
1 21876U 92008B   26050.61438584  .00000038  00000+0  23745-4 0  9990
2 21876  82.9245 281.2265 0034521 183.0698 233.6741 13.75970106706932
SL-8 R/B                
1 21938U 92020B   26050.88322655  .00000098  00000+0  85673-4 0  9997
2 21938  82.9340 166.9778 0028538 350.0890 131.0716 13.75547101698686
USA 81                  
1 21949U 92023A   26050.77518595  .00000197  00000+0  65420-4 0  9998
2 21949  85.0115 141.7723 0002733  94.0134 266.1371 14.32361339 92224
COSMOS 2219             
1 22219U 92076A   26050.48273032  .00000263  00000+0  16252-3 0  9991
2 22219  71.0587  56.1300 0019853 231.4893 128.4450 14.14079810715807
SL-16 R/B               
1 22220U 92076B   26050.91476292 -.00000041  00000+0  33949-5 0  9993
2 22220  70.9977 225.8151 0011116 128.9964 339.7536 14.16854669719319
COSMOS 2221             
1 22236U 92080A   26050.78053889  .00001645  00000+0  14380-3 0  9999
2 22236  82.5038 296.2353 0012852 252.0420 107.9402 14.96127572778117
SL-16 R/B               
1 22285U 92093B   26050.43594424  .00000306  00000+0  18130-3 0  9994
2 22285  71.0214  42.5849 0005594 313.4038  46.6619 14.15445633710571
COSMOS 2228             
1 22286U 92094A   26050.94232288  .00001661  00000+0  14134-3 0  9994
2 22286  82.5146 254.3062 0018175   6.3007 353.8440 14.97099335773406
