CCSDS_OMM_VERS = 2.0
CREATION_DATE  = 
ORIGINATOR     = 

OBJECT_NAME    = SL-14 R/B
OBJECT_ID      = 1991-042B
CENTER_NAME    = EARTH
REF_FRAME      = TEME
TIME_SYSTEM    = UTC
MEAN_ELEMENT_THEORY = SGP/SGP4

EPOCH          = 2026-02-19T22:20:22.899840
MEAN_MOTION    = 14.81810340
ECCENTRICITY   = .00157412
INCLINATION    = 82.4896
RA_OF_ASC_NODE = 236.8380
ARG_OF_PERICENTER = 302.3170
MEAN_ANOMALY   = 57.6519

EPHEMERIS_TYPE = 0
CLASSIFICATION_TYPE = U
NORAD_CAT_ID   = 21423
ELEMENT_SET_NO = 999
REV_AT_EPOCH   = 85044
BSTAR          = .45372434E-4
MEAN_MOTION_DOT = .382E-5
MEAN_MOTION_DDOT = 0

CCSDS_OMM_VERS = 2.0
CREATION_DATE  = 
ORIGINATOR     = 

OBJECT_NAME    = ERS-1
OBJECT_ID      = 1991-050A
CENTER_NAME    = EARTH
REF_FRAME      = TEME
TIME_SYSTEM    = UTC
MEAN_ELEMENT_THEORY = SGP/SGP4

EPOCH          = 2026-02-19T21:39:29.786976
MEAN_MOTION    = 14.39434081
ECCENTRICITY   = .00309111
INCLINATION    = 98.7893
RA_OF_ASC_NODE = 68.6896
ARG_OF_PERICENTER = 254.5388
MEAN_ANOMALY   = 105.2384

EPHEMERIS_TYPE = 0
CLASSIFICATION_TYPE = U
NORAD_CAT_ID   = 21574
ELEMENT_SET_NO = 999
REV_AT_EPOCH   = 81317
BSTAR          = .96354276E-4
MEAN_MOTION_DOT = .255E-5
MEAN_MOTION_DDOT = 0

CCSDS_OMM_VERS = 2.0
CREATION_DATE  = 
ORIGINATOR     = 

OBJECT_NAME    = ARIANE 40 R/B
OBJECT_ID      = 1991-050F
CENTER_NAME    = EARTH
REF_FRAME      = TEME
TIME_SYSTEM    = UTC
MEAN_ELEMENT_THEORY = SGP/SGP4

EPOCH          = 2026-02-19T15:34:29.417376
MEAN_MOTION    = 14.42879568
ECCENTRICITY   = .00042373
INCLINATION    = 98.2053
RA_OF_ASC_NODE = 103.5591
ARG_OF_PERICENTER = 120.7102
MEAN_ANOMALY   = 239.4507

EPHEMERIS_TYPE = 0
CLASSIFICATION_TYPE = U
NORAD_CAT_ID   = 21610
ELEMENT_SET_NO = 999
REV_AT_EPOCH   = 81639
BSTAR          = .90456172E-4
MEAN_MOTION_DOT = .26E-5
MEAN_MOTION_DDOT = 0

CCSDS_OMM_VERS = 2.0
CREATION_DATE  = 
ORIGINATOR     = 

OBJECT_NAME    = INTERCOSMOS 25
OBJECT_ID      = 1991-086A
CENTER_NAME    = EARTH
REF_FRAME      = TEME
TIME_SYSTEM    = UTC
MEAN_ELEMENT_THEORY = SGP/SGP4

EPOCH          = 2026-02-19T19:47:49.034112
MEAN_MOTION    = 12.11946636
ECCENTRICITY   = .14870005
INCLINATION    = 82.6080
RA_OF_ASC_NODE = 320.8038
ARG_OF_PERICENTER = 155.4155
MEAN_ANOMALY   = 212.5930

EPHEMERIS_TYPE = 0
CLASSIFICATION_TYPE = U
NORAD_CAT_ID   = 21819
ELEMENT_SET_NO = 999
REV_AT_EPOCH   = 49452
BSTAR          = .15224287E-3
MEAN_MOTION_DOT = .805E-5
MEAN_MOTION_DDOT = 0

CCSDS_OMM_VERS = 2.0
CREATION_DATE  = 
ORIGINATOR     = 

OBJECT_NAME    = SL-8 R/B
OBJECT_ID      = 1992-008B
CENTER_NAME    = EARTH
REF_FRAME      = TEME
TIME_SYSTEM    = UTC
MEAN_ELEMENT_THEORY = SGP/SGP4

EPOCH          = 2026-02-19T14:44:42.936576
MEAN_MOTION    = 13.75970106
ECCENTRICITY   = .0034521
INCLINATION    = 82.9245
RA_OF_ASC_NODE = 281.2265
ARG_OF_PERICENTER = 183.0698
MEAN_ANOMALY   = 233.6741

EPHEMERIS_TYPE = 0
CLASSIFICATION_TYPE = U
NORAD_CAT_ID   = 21876
ELEMENT_SET_NO = 999
REV_AT_EPOCH   = 70693
BSTAR          = .23745E-4
MEAN_MOTION_DOT = .38E-6
MEAN_MOTION_DDOT = 0

CCSDS_OMM_VERS = 2.0
CREATION_DATE  = 
ORIGINATOR     = 

OBJECT_NAME    = SL-8 R/B
OBJECT_ID      = 1992-020B
CENTER_NAME    = EARTH
REF_FRAME      = TEME
TIME_SYSTEM    = UTC
MEAN_ELEMENT_THEORY = SGP/SGP4

EPOCH          = 2026-02-19T21:11:50.773920
MEAN_MOTION    = 13.75547101
ECCENTRICITY   = .00285386
INCLINATION    = 82.9340
RA_OF_ASC_NODE = 166.9778
ARG_OF_PERICENTER = 350.0890
MEAN_ANOMALY   = 131.0716

EPHEMERIS_TYPE = 0
CLASSIFICATION_TYPE = U
NORAD_CAT_ID   = 21938
ELEMENT_SET_NO = 999
REV_AT_EPOCH   = 69868
BSTAR          = .856735E-4
MEAN_MOTION_DOT = .98E-6
MEAN_MOTION_DDOT = 0

CCSDS_OMM_VERS = 2.0
CREATION_DATE  = 
ORIGINATOR     = 

OBJECT_NAME    = USA 81
OBJECT_ID      = 1992-023A
CENTER_NAME    = EARTH
REF_FRAME      = TEME
TIME_SYSTEM    = UTC
MEAN_ELEMENT_THEORY = SGP/SGP4

EPOCH          = 2026-02-19T18:36:16.066080
MEAN_MOTION    = 14.32361339
ECCENTRICITY   = .0002733
INCLINATION    = 85.0115
RA_OF_ASC_NODE = 141.7723
ARG_OF_PERICENTER = 94.0134
MEAN_ANOMALY   = 266.1371

EPHEMERIS_TYPE = 0
CLASSIFICATION_TYPE = U
NORAD_CAT_ID   = 21949
ELEMENT_SET_NO = 999
REV_AT_EPOCH   = 9222
BSTAR          = .65419706E-4
MEAN_MOTION_DOT = .197E-5
MEAN_MOTION_DDOT = 0

CCSDS_OMM_VERS = 2.0
CREATION_DATE  = 
ORIGINATOR     = 

OBJECT_NAME    = COSMOS 2219
OBJECT_ID      = 1992-076A
CENTER_NAME    = EARTH
REF_FRAME      = TEME
TIME_SYSTEM    = UTC
MEAN_ELEMENT_THEORY = SGP/SGP4

EPOCH          = 2026-02-19T11:35:07.899648
MEAN_MOTION    = 14.14079810
ECCENTRICITY   = .0019853
INCLINATION    = 71.0587
RA_OF_ASC_NODE = 56.1300
ARG_OF_PERICENTER = 231.4893
MEAN_ANOMALY   = 128.4450

EPHEMERIS_TYPE = 0
CLASSIFICATION_TYPE = U
NORAD_CAT_ID   = 22219
ELEMENT_SET_NO = 999
REV_AT_EPOCH   = 71580
BSTAR          = .16252E-3
MEAN_MOTION_DOT = .263E-5
MEAN_MOTION_DDOT = 0

CCSDS_OMM_VERS = 2.0
CREATION_DATE  = 
ORIGINATOR     = 

OBJECT_NAME    = SL-16 R/B
OBJECT_ID      = 1992-076B
CENTER_NAME    = EARTH
REF_FRAME      = TEME
TIME_SYSTEM    = UTC
MEAN_ELEMENT_THEORY = SGP/SGP4

EPOCH          = 2026-02-19T21:57:15.516288
MEAN_MOTION    = 14.16854669
ECCENTRICITY   = .00111166
INCLINATION    = 70.9977
RA_OF_ASC_NODE = 225.8151
ARG_OF_PERICENTER = 128.9964
MEAN_ANOMALY   = 339.7536

EPHEMERIS_TYPE = 0
CLASSIFICATION_TYPE = U
NORAD_CAT_ID   = 22220
ELEMENT_SET_NO = 999
REV_AT_EPOCH   = 71931
BSTAR          = .3394935E-5
MEAN_MOTION_DOT = -.41E-6
MEAN_MOTION_DDOT = 0

CCSDS_OMM_VERS = 2.0
CREATION_DATE  = 
ORIGINATOR     = 

OBJECT_NAME    = COSMOS 2221
OBJECT_ID      = 1992-080A
CENTER_NAME    = EARTH
REF_FRAME      = TEME
TIME_SYSTEM    = UTC
MEAN_ELEMENT_THEORY = SGP/SGP4

EPOCH          = 2026-02-19T18:43:58.560096
MEAN_MOTION    = 14.96127572
ECCENTRICITY   = .00128527
INCLINATION    = 82.5038
RA_OF_ASC_NODE = 296.2353
ARG_OF_PERICENTER = 252.0420
MEAN_ANOMALY   = 107.9402

EPHEMERIS_TYPE = 0
CLASSIFICATION_TYPE = U
NORAD_CAT_ID   = 22236
ELEMENT_SET_NO = 999
REV_AT_EPOCH   = 77811
BSTAR          = .14380006E-3
MEAN_MOTION_DOT = .1645E-4
MEAN_MOTION_DDOT = 0

CCSDS_OMM_VERS = 2.0
CREATION_DATE  = 
ORIGINATOR     = 

OBJECT_NAME    = SL-16 R/B
OBJECT_ID      = 1992-093B
CENTER_NAME    = EARTH
REF_FRAME      = TEME
TIME_SYSTEM    = UTC
MEAN_ELEMENT_THEORY = SGP/SGP4

EPOCH          = 2026-02-19T10:27:45.582336
MEAN_MOTION    = 14.15445633
ECCENTRICITY   = .00055941
INCLINATION    = 71.0214
RA_OF_ASC_NODE = 42.5849
ARG_OF_PERICENTER = 313.4038
MEAN_ANOMALY   = 46.6619

EPHEMERIS_TYPE = 0
CLASSIFICATION_TYPE = U
NORAD_CAT_ID   = 22285
ELEMENT_SET_NO = 999
REV_AT_EPOCH   = 71057
BSTAR          = .18129813E-3
MEAN_MOTION_DOT = .306E-5
MEAN_MOTION_DDOT = 0

CCSDS_OMM_VERS = 2.0
CREATION_DATE  = 
ORIGINATOR     = 

OBJECT_NAME    = COSMOS 2228
OBJECT_ID      = 1992-094A
CENTER_NAME    = EARTH
REF_FRAME      = TEME
TIME_SYSTEM    = UTC
MEAN_ELEMENT_THEORY = SGP/SGP4

EPOCH          = 2026-02-19T22:36:56.696832
MEAN_MOTION    = 14.97099335
ECCENTRICITY   = .00181756
INCLINATION    = 82.5146
RA_OF_ASC_NODE = 254.3062
ARG_OF_PERICENTER = 6.3007
MEAN_ANOMALY   = 353.8440

EPHEMERIS_TYPE = 0
CLASSIFICATION_TYPE = U
NORAD_CAT_ID   = 22286
ELEMENT_SET_NO = 999
REV_AT_EPOCH   = 77340
BSTAR          = .14134454E-3
MEAN_MOTION_DOT = .1661E-4
MEAN_MOTION_DDOT = 0

